ATLAS CENTAUR R/B       
1 06155U 72065B   26002.94672899  .00002527  00000+0  34851-3 0  9990
2 06155  35.0029 330.9686 0033897 178.5231 181.5574 14.77478471831531
SL-8 R/B                
1 08459U 75112B   26002.83820541  .00000578  00000+0  19891-3 0  9993
2 08459  74.0607 140.0502 0016763 249.5233 110.4122 14.38162572622409
SL-3 R/B                
1 10114U 77057B   26002.95940849  .00018643  00000+0  41652-3 0  9993
2 10114  97.5686 172.1236 0007867 152.0754 208.0917 15.43542311658188
SEASAT 1                
1 10967U 78064A   26002.85025167  .00000866  00000+0  28063-3 0  9993
2 10967 108.0141 347.3267 0001240 261.8366  98.2639 14.46090040496993
SL-14 R/B               
1 11267U 79011B   26002.91681365  .00001280  00000+0  12423-3 0  9999
2 11267  82.5245 158.9595 0014690 278.2203  81.7350 14.91804315518971
SL-8 R/B                
1 11574U 79089B   26002.92240660  .00000407  00000+0  13105-3 0  9993
2 11574  74.0673 212.7742 0014977  38.7032 321.5194 14.42298144426627
SL-14 R/B               
1 11672U 80005B   26002.48398147  .00001235  00000+0  12273-3 0  9992
2 11672  82.5139  10.0227 0016542  29.4919 330.7229 14.90822874466626
SL-8 R/B                
1 12139U 81003B   26002.97999696  .00032139  00000+0  84851-3 0  9998
2 12139  82.9363 350.6577 0275491  47.4283 314.9837 15.07871645304767
SL-3 R/B                
1 12465U 81046B   26002.94372146  .00017838  00000+0  44157-3 0  9993
2 12465  81.2315   8.5609 0017987 245.7469 114.1893 15.40134062428307
SL-3 R/B                
1 12904U 81103B   26002.91805794  .00009758  00000+0  44379-3 0  9990
2 12904  81.1609 290.5472 0013549 141.2734 218.9471 15.20535144963231
SL-3 R/B                
1 13068U 82013B   26002.88997524  .00006667  00000+0  29469-3 0  9991
2 13068  81.1736 237.8507 0023706  43.0399 317.2681 15.21302791394346
SL-3 R/B                
1 13154U 82039B   26002.91637734  .00005390  00000+0  32996-3 0  9994
2 13154  81.1705 291.7312 0029599 180.4350 179.6855 15.09675728371718
