CCSDS_OMM_VERS = 2.0
CREATION_DATE  = 
ORIGINATOR     = 

OBJECT_NAME    = ATLAS CENTAUR R/B
OBJECT_ID      = 1972-065B
CENTER_NAME    = EARTH
REF_FRAME      = TEME
TIME_SYSTEM    = UTC
MEAN_ELEMENT_THEORY = SGP/SGP4

EPOCH          = 2026-01-02T22:43:17.384736
MEAN_MOTION    = 14.77478471
ECCENTRICITY   = .00338973
INCLINATION    = 35.0029
RA_OF_ASC_NODE = 330.9686
ARG_OF_PERICENTER = 178.5231
MEAN_ANOMALY   = 181.5574

EPHEMERIS_TYPE = 0
CLASSIFICATION_TYPE = U
NORAD_CAT_ID   = 6155
ELEMENT_SET_NO = 999
REV_AT_EPOCH   = 83153
BSTAR          = .34851497E-3
MEAN_MOTION_DOT = .2527E-4
MEAN_MOTION_DDOT = 0

CCSDS_OMM_VERS = 2.0
CREATION_DATE  = 
ORIGINATOR     = 

OBJECT_NAME    = SL-8 R/B
OBJECT_ID      = 1975-112B
CENTER_NAME    = EARTH
REF_FRAME      = TEME
TIME_SYSTEM    = UTC
MEAN_ELEMENT_THEORY = SGP/SGP4

EPOCH          = 2026-01-02T20:07:00.947424
MEAN_MOTION    = 14.38162572
ECCENTRICITY   = .00167636
INCLINATION    = 74.0607
RA_OF_ASC_NODE = 140.0502
ARG_OF_PERICENTER = 249.5233
MEAN_ANOMALY   = 110.4122

EPHEMERIS_TYPE = 0
CLASSIFICATION_TYPE = U
NORAD_CAT_ID   = 8459
ELEMENT_SET_NO = 999
REV_AT_EPOCH   = 62240
BSTAR          = .19890807E-3
MEAN_MOTION_DOT = .578E-5
MEAN_MOTION_DDOT = 0

CCSDS_OMM_VERS = 2.0
CREATION_DATE  = 
ORIGINATOR     = 

OBJECT_NAME    = SL-3 R/B
OBJECT_ID      = 1977-057B
CENTER_NAME    = EARTH
REF_FRAME      = TEME
TIME_SYSTEM    = UTC
MEAN_ELEMENT_THEORY = SGP/SGP4

EPOCH          = 2026-01-02T23:01:32.893536
MEAN_MOTION    = 15.43542311
ECCENTRICITY   = .00078672
INCLINATION    = 97.5686
RA_OF_ASC_NODE = 172.1236
ARG_OF_PERICENTER = 152.0754
MEAN_ANOMALY   = 208.0917

EPHEMERIS_TYPE = 0
CLASSIFICATION_TYPE = U
NORAD_CAT_ID   = 10114
ELEMENT_SET_NO = 999
REV_AT_EPOCH   = 65818
BSTAR          = .41651562E-3
MEAN_MOTION_DOT = .18643E-3
MEAN_MOTION_DDOT = 0

CCSDS_OMM_VERS = 2.0
CREATION_DATE  = 
ORIGINATOR     = 

OBJECT_NAME    = SEASAT 1
OBJECT_ID      = 1978-064A
CENTER_NAME    = EARTH
REF_FRAME      = TEME
TIME_SYSTEM    = UTC
MEAN_ELEMENT_THEORY = SGP/SGP4

EPOCH          = 2026-01-02T20:24:21.744288
MEAN_MOTION    = 14.46090040
ECCENTRICITY   = .00012404
INCLINATION    = 108.0141
RA_OF_ASC_NODE = 347.3267
ARG_OF_PERICENTER = 261.8366
MEAN_ANOMALY   = 98.2639

EPHEMERIS_TYPE = 0
CLASSIFICATION_TYPE = U
NORAD_CAT_ID   = 10967
ELEMENT_SET_NO = 999
REV_AT_EPOCH   = 49699
BSTAR          = .28062955E-3
MEAN_MOTION_DOT = .866E-5
MEAN_MOTION_DDOT = 0

CCSDS_OMM_VERS = 2.0
CREATION_DATE  = 
ORIGINATOR     = 

OBJECT_NAME    = SL-14 R/B
OBJECT_ID      = 1979-011B
CENTER_NAME    = EARTH
REF_FRAME      = TEME
TIME_SYSTEM    = UTC
MEAN_ELEMENT_THEORY = SGP/SGP4

EPOCH          = 2026-01-02T22:00:12.699360
MEAN_MOTION    = 14.91804315
ECCENTRICITY   = .00146901
INCLINATION    = 82.5245
RA_OF_ASC_NODE = 158.9595
ARG_OF_PERICENTER = 278.2203
MEAN_ANOMALY   = 81.7350

EPHEMERIS_TYPE = 0
CLASSIFICATION_TYPE = U
NORAD_CAT_ID   = 11267
ELEMENT_SET_NO = 999
REV_AT_EPOCH   = 51897
BSTAR          = .12423057E-3
MEAN_MOTION_DOT = .128E-4
MEAN_MOTION_DDOT = 0

CCSDS_OMM_VERS = 2.0
CREATION_DATE  = 
ORIGINATOR     = 

OBJECT_NAME    = SL-8 R/B
OBJECT_ID      = 1979-089B
CENTER_NAME    = EARTH
REF_FRAME      = TEME
TIME_SYSTEM    = UTC
MEAN_ELEMENT_THEORY = SGP/SGP4

EPOCH          = 2026-01-02T22:08:15.930240
MEAN_MOTION    = 14.42298144
ECCENTRICITY   = .00149776
INCLINATION    = 74.0673
RA_OF_ASC_NODE = 212.7742
ARG_OF_PERICENTER = 38.7032
MEAN_ANOMALY   = 321.5194

EPHEMERIS_TYPE = 0
CLASSIFICATION_TYPE = U
NORAD_CAT_ID   = 11574
ELEMENT_SET_NO = 999
REV_AT_EPOCH   = 42662
BSTAR          = .13104553E-3
MEAN_MOTION_DOT = .407E-5
MEAN_MOTION_DDOT = 0

CCSDS_OMM_VERS = 2.0
CREATION_DATE  = 
ORIGINATOR     = 

OBJECT_NAME    = SL-14 R/B
OBJECT_ID      = 1980-005B
CENTER_NAME    = EARTH
REF_FRAME      = TEME
TIME_SYSTEM    = UTC
MEAN_ELEMENT_THEORY = SGP/SGP4

EPOCH          = 2026-01-02T11:36:55.999008
MEAN_MOTION    = 14.90822874
ECCENTRICITY   = .00165422
INCLINATION    = 82.5139
RA_OF_ASC_NODE = 10.0227
ARG_OF_PERICENTER = 29.4919
MEAN_ANOMALY   = 330.7229

EPHEMERIS_TYPE = 0
CLASSIFICATION_TYPE = U
NORAD_CAT_ID   = 11672
ELEMENT_SET_NO = 999
REV_AT_EPOCH   = 46662
BSTAR          = .12273423E-3
MEAN_MOTION_DOT = .1235E-4
MEAN_MOTION_DDOT = 0

CCSDS_OMM_VERS = 2.0
CREATION_DATE  = 
ORIGINATOR     = 

OBJECT_NAME    = SL-8 R/B
OBJECT_ID      = 1981-003B
CENTER_NAME    = EARTH
REF_FRAME      = TEME
TIME_SYSTEM    = UTC
MEAN_ELEMENT_THEORY = SGP/SGP4

EPOCH          = 2026-01-02T23:31:11.737344
MEAN_MOTION    = 15.07871645
ECCENTRICITY   = .02754912
INCLINATION    = 82.9363
RA_OF_ASC_NODE = 350.6577
ARG_OF_PERICENTER = 47.4283
MEAN_ANOMALY   = 314.9837

EPHEMERIS_TYPE = 0
CLASSIFICATION_TYPE = U
NORAD_CAT_ID   = 12139
ELEMENT_SET_NO = 999
REV_AT_EPOCH   = 30476
BSTAR          = .84850901E-3
MEAN_MOTION_DOT = .32139E-3
MEAN_MOTION_DDOT = 0

CCSDS_OMM_VERS = 2.0
CREATION_DATE  = 
ORIGINATOR     = 

OBJECT_NAME    = SL-3 R/B
OBJECT_ID      = 1981-046B
CENTER_NAME    = EARTH
REF_FRAME      = TEME
TIME_SYSTEM    = UTC
MEAN_ELEMENT_THEORY = SGP/SGP4

EPOCH          = 2026-01-02T22:38:57.534144
MEAN_MOTION    = 15.40134062
ECCENTRICITY   = .00179874
INCLINATION    = 81.2315
RA_OF_ASC_NODE = 8.5609
ARG_OF_PERICENTER = 245.7469
MEAN_ANOMALY   = 114.1893

EPHEMERIS_TYPE = 0
CLASSIFICATION_TYPE = U
NORAD_CAT_ID   = 12465
ELEMENT_SET_NO = 999
REV_AT_EPOCH   = 42830
BSTAR          = .44156528E-3
MEAN_MOTION_DOT = .17838E-3
MEAN_MOTION_DDOT = 0

CCSDS_OMM_VERS = 2.0
CREATION_DATE  = 
ORIGINATOR     = 

OBJECT_NAME    = SL-3 R/B
OBJECT_ID      = 1981-103B
CENTER_NAME    = EARTH
REF_FRAME      = TEME
TIME_SYSTEM    = UTC
MEAN_ELEMENT_THEORY = SGP/SGP4

EPOCH          = 2026-01-02T22:02:00.206016
MEAN_MOTION    = 15.20535144
ECCENTRICITY   = .00135494
INCLINATION    = 81.1609
RA_OF_ASC_NODE = 290.5472
ARG_OF_PERICENTER = 141.2734
MEAN_ANOMALY   = 218.9471

EPHEMERIS_TYPE = 0
CLASSIFICATION_TYPE = U
NORAD_CAT_ID   = 12904
ELEMENT_SET_NO = 999
REV_AT_EPOCH   = 96323
BSTAR          = .44378604E-3
MEAN_MOTION_DOT = .9758E-4
MEAN_MOTION_DDOT = 0

CCSDS_OMM_VERS = 2.0
CREATION_DATE  = 
ORIGINATOR     = 

OBJECT_NAME    = SL-3 R/B
OBJECT_ID      = 1982-013B
CENTER_NAME    = EARTH
REF_FRAME      = TEME
TIME_SYSTEM    = UTC
MEAN_ELEMENT_THEORY = SGP/SGP4

EPOCH          = 2026-01-02T21:21:33.860736
MEAN_MOTION    = 15.21302791
ECCENTRICITY   = .00237065
INCLINATION    = 81.1736
RA_OF_ASC_NODE = 237.8507
ARG_OF_PERICENTER = 43.0399
MEAN_ANOMALY   = 317.2681

EPHEMERIS_TYPE = 0
CLASSIFICATION_TYPE = U
NORAD_CAT_ID   = 13068
ELEMENT_SET_NO = 999
REV_AT_EPOCH   = 39434
BSTAR          = .29469156E-3
MEAN_MOTION_DOT = .6667E-4
MEAN_MOTION_DDOT = 0

CCSDS_OMM_VERS = 2.0
CREATION_DATE  = 
ORIGINATOR     = 

OBJECT_NAME    = SL-3 R/B
OBJECT_ID      = 1982-039B
CENTER_NAME    = EARTH
REF_FRAME      = TEME
TIME_SYSTEM    = UTC
MEAN_ELEMENT_THEORY = SGP/SGP4

EPOCH          = 2026-01-02T21:59:35.002176
MEAN_MOTION    = 15.09675728
ECCENTRICITY   = .00295996
INCLINATION    = 81.1705
RA_OF_ASC_NODE = 291.7312
ARG_OF_PERICENTER = 180.4350
MEAN_ANOMALY   = 179.6855

EPHEMERIS_TYPE = 0
CLASSIFICATION_TYPE = U
NORAD_CAT_ID   = 13154
ELEMENT_SET_NO = 999
REV_AT_EPOCH   = 37171
BSTAR          = .32995529E-3
MEAN_MOTION_DOT = .539E-4
MEAN_MOTION_DDOT = 0

